SatCatId,ObjectName,LaunchYear,OrbitalPeriod,LaunchMass,StatusCode,Inclination,Status,UcsData,OrbitClassEstimated,LaunchSiteCountry,Owner,UseType,Purpose,LaunchVehicleClass,TLE1,TLE2,MeanMotion,Eccentricity,OrbitClass
44412,BEESAT 9,2019,93.61,1.0,+,97.68,Active,1,LEO,Russia,Germany,Civil,Technology Development,Soyuz,1 44412U 19038AC  23294.93212105  .00035840  00000+0  94188-3 0  9991,2 44412  97.6847 280.4944 0011702 196.6530 163.4332 15.38448652237583,15.38448652,0.0011702,LEO
44413,LEMUR-2-YNDRD,2019,93.61,-1.0,+,97.67,Active,0,LEO,Russia,USA,Unknown,Unknown,Unknown,1 44413U 19038AD  23294.89579854  .00038150  00000+0  10036-2 0  9990,2 44413  97.6661 279.5654 0013182 188.2363 171.8667 15.38384009237916,15.38384009,0.0013182,LEO
44415,NARSSCUBE-2,2019,92.36,1.0,+,51.63,Active,1,LEO,USA,Egypt,Government,Technology Development,Falcon,1 44415U 19022E   23294.52261654  .00063529  00000+0  79310-3 0  9990,2 44415  51.6310 229.5804 0009525  72.2796 287.9235 15.59203585235942,15.59203585,0.0009525,LEO
44419,JAISAT-1,2019,93.6,1.0,+,97.68,Active,1,LEO,Russia,Thailand,Civil,Communications,Soyuz,1 44419U 19038F   23294.92578809  .00042023  00000+0  10980-2 0  9991,2 44419  97.6835 281.6114 0011266 192.4263 167.6705 15.38596079237960,15.38596079,0.0011266,LEO
44422,COSMOS 2536,2019,95.45,-1.0,+,97.71,Active,1,LEO,Russia,Russia/USSR,Military,Technology Development,Soyuz,1 44422U 19039B   23295.14925458  .00026070  00000+0  16585-2 0  9998,2 44422  97.7057 341.1421 0004820 186.8281 173.2882 15.08766020232741,15.0876602,0.000482,LEO
44424,COSMOS 2538,2019,95.71,-1.0,+,97.7,Active,1,LEO,Russia,Russia/USSR,Military,Technology Development,Soyuz,1 44424U 19039D   23295.14426822  .00005628  00000+0  39010-3 0  9996,2 44424  97.7026 357.1585 0059799 134.5432 226.0701 15.04565811233413,15.04565811,0.0059799,LEO
44449,YAOGAN-30 N,2019,96.44,-1.0,+,34.99,Active,1,LEO,PRC,China,Military,Earth Observation,Long March,1 44449U 19045A   23295.09517335  .00003797  00000+0  35929-3 0  9994,2 44449  34.9940  76.4716 0003336 134.7401 225.3576 14.93175509231226,14.93175509,0.0003336,LEO
44450,YAOGAN-30 P,2019,96.44,-1.0,+,34.99,Active,1,LEO,PRC,China,Military,Earth Observation,Long March,1 44450U 19045B   23295.07170816  .00003864  00000+0  36474-3 0  9994,2 44450  34.9932  76.1959 0010286 289.1208  70.8384 14.93223279231225,14.93223279,0.0010286,LEO
44451,YAOGAN-30 Q,2019,96.44,-1.0,+,34.99,Active,1,LEO,PRC,China,Military,Earth Observation,Long March,1 44451U 19045C   23295.11769263  .00003877  00000+0  36683-3 0  9996,2 44451  34.9941  75.7548 0001753 308.5162  51.5386 14.93174208231190,14.93174208,0.0001753,LEO
44453,MERIDIAN 8,2019,717.92,2500.0,P,62.68,Active,1,MEO,Russia,Russia/USSR,Military,Communications,Soyuz,1 44453U 19046A   23292.69189002  .00000232  00000+0  00000+0 0  9998,2 44453  62.6755 162.7068 6717633 273.8199  17.8758  2.00580822 30854,2.00580822,0.6717633,MEO
44457,COSMOS 2539,2019,1436.11,3000.0,+,0.02,Active,1,GSO,Kazakhstan,Russia/USSR,Commercial/Military,Communications,Proton,1 44457U 19048A   23293.84841226  .00000086  00000+0  00000+0 0  9992,2 44457   0.0230 129.4033 0000462 272.4691 304.6214  1.00270963 15482,1.00270963,4.62e-05,GEO
44475,EDRS-C,2019,1436.13,3186.0,+,0.08,Active,1,GSO,French Guiana,ESA,Commercial,Communications,Ariane,1 44475U 19049A   23294.83004191  .00000155  00000+0  00000+0 0  9992,2 44475   0.0785 258.3873 0000895 291.4672 170.1758  1.00269771 15474,1.00269771,8.95e-05,GEO
44476,INTELSAT 39 (IS-39),2019,1436.11,6600.0,+,0.02,Active,1,GSO,French Guiana,INTELSAT,Commercial,Communications,Ariane,1 44476U 19049B   23292.56759215  .00000043  00000+0  00000+0 0  9991,2 44476   0.0175 242.3726 0000634 199.7070 212.0022  1.00271069 15395,1.00271069,6.34e-05,GEO
44479,AMOS-17,2019,1436.07,6500.0,+,0.02,Active,1,GSO,USA,Israel,Commercial/Military,Communications,Falcon,1 44479U 19050A   23295.13788646  .00000109  00000+0  00000+0 0  9995,2 44479   0.0124 216.7828 0001524 358.0511 242.1106  1.00269803 15467,1.00269803,0.0001524,GEO
44481,AEHF-5 (USA 292),2019,1436.11,6169.0,+,3.24,Active,1,GSO,USA,USA,Military,Communications,Atlas,1 44481U 19051A   23294.95679875  .00000082  00000+0  00000+0 0  9991,2 44481   3.2342 305.3222 0046214 354.4779 129.3084  1.00271122 15548,1.00271122,0.0046214,GSO
44495,BRO-1,2019,94.92,8.0,+,45.01,Active,1,LEO,New Zealand,France,Commercial,Earth Observation,Electron,1 44495U 19054A   23295.21783940  .00009242  00000+0  47037-3 0  9990,2 44495  45.0141 273.1762 0007814 197.2367 162.8248 15.17136880230529,15.1713688,0.0007814,LEO
44497,PEARL WHITE 1,2019,94.65,8.0,+,45.0,Active,1,LEO,New Zealand,USA,Commercial,Technology Development,Electron,1 44497U 19054C   23295.17558352  .00013964  00000+0  62286-3 0  9993,2 44497  45.0043 264.7438 0005110 203.0776 156.9876 15.21368258230561,15.21368258,0.000511,LEO
44498,PEARL WHITE 2,2019,94.63,8.0,+,45.01,Active,1,LEO,New Zealand,USA,Commercial,Technology Development,Electron,1 44498U 19054D   23295.15153237  .00013992  00000+0  61814-3 0  9992,2 44498  45.0062 261.2527 0006235 201.5001 158.5618 15.21689028230627,15.21689028,0.0006235,LEO
44499,GLOBAL-4,2019,94.55,56.0,+,45.01,Active,1,LEO,New Zealand,USA,Commercial,Earth Observation,Electron,1 44499U 19054E   23295.20293927  .00012108  00000+0  51589-3 0  9996,2 44499  45.0097 220.7113 0010492 246.4268 113.5511 15.23009991231104,15.23009991,0.0010492,LEO
44506,NAVSTAR 78 (USA 293),2019,717.97,2300.0,+,55.83,Active,1,MEO,USA,USA,Commercial/Military,Navigation (Global or Regional Positioning),Delta,1 44506U 19056A   23294.69530919 -.00000081  00000+0  00000+0 0  9990,2 44506  55.8265   9.5668 0038231 187.5207  14.1481  2.00566200 30624,2.005662,0.0038231,MEO
44517,COSMOS 2540,2019,103.9,900.0,+,99.25,Active,1,LEO,Russia,Russia/USSR,Military,Earth Observation,Rokot,1 44517U 19057A   23295.20874925  .00000067  00000+0  97000-4 0  9993,2 44517  99.2465 305.3263 0014947 229.6747 130.3103 13.85899994209650,13.85899994,0.0014947,LEO
44519,XIAOXIANG 1-07,2019,95.73,10.0,+,97.8,Active,1,LEO,PRC,China,Commercial,Technology Development,Kuaizhou,1 44519U 19058A   23295.16895505  .00014774  00000+0  10637-2 0  9997,2 44519  97.8020 305.4218 0011887 322.4017  37.6376 15.04248840225656,15.0424884,0.0011887,LEO
44520,KX-09,2019,96.55,-1.0,+,97.79,Active,1,LEO,PRC,China,Government,Space Science,Kuaizhou,1 44520U 19058B   23295.19167131  .00001768  00000+0  18211-3 0  9995,2 44520  97.7946 300.2738 0010873 337.4313  22.6426 14.91507146225329,14.91507146,0.0010873,LEO
44528,ZY-1 02D,2019,100.32,2650.0,+,98.44,Active,1,LEO,PRC,China,Government,Earth Observation,Long March,1 44528U 19059A   23295.15998100  .00000325  00000+0  12804-3 0  9998,2 44528  98.4375   8.2602 0001642 108.3160 251.8205 14.35427046215323,14.35427046,0.0001642,LEO
44529,BNU-1 (JINGSHI 1),2019,99.58,16.0,+,98.53,Active,1,LEO,PRC,China,Civil,Earth Observation,Long March,1 44529U 19059B   23295.19553248  .00000952  00000+0  27927-3 0  9991,2 44529  98.5288  37.3630 0014496  66.5545 293.7168 14.46063327216824,14.46063327,0.0014496,LEO
44530,TAURUS-1 (JINNIUZUO 1),2019,99.21,-1.0,+,98.56,Active,0,LEO,PRC,China,Unknown,Unknown,Unknown,1 44530U 19059C   23295.19224349  .00005682  00000+0  14304-2 0  9999,2 44530  98.5613  45.1088 0012816  68.1135 292.1421 14.51516902217058,14.51516902,0.0012816,LEO
44533,SEEKER,2019,91.12,-1.0,+,51.62,Active,0,LEO,USA,USA,Unknown,Unknown,Unknown,1 44533U 19022K   23295.10488298  .00188597  00000+0  93539-3 0  9993,2 44533  51.6207 194.8451 0007430 122.5367 237.6353 15.80869467230327,15.80869467,0.000743,LEO
44534,ZHUHAI-1 03A,2019,93.5,55.0,+,97.49,Active,1,LEO,PRC,China,Commercial,Earth Observation,Long March,1 44534U 19060A   23295.13367379  .00039000  00000+0  96602-3 0  9993,2 44534  97.4880  52.1784 0014249 142.9779 217.2453 15.40206238227257,15.40206238,0.0014249,LEO
44536,ZHUHAI-1 03B,2019,93.5,55.0,+,97.49,Active,1,LEO,PRC,China,Commercial,Earth Observation,Long March,1 44536U 19060C   23295.18202785  .00035490  00000+0  88485-3 0  9998,2 44536  97.4904  52.5668 0006409 159.2750 200.8757 15.40111488227279,15.40111488,0.0006409,LEO
44537,ZHUHAI-1 03C,2019,93.52,55.0,+,97.48,Active,1,LEO,PRC,China,Commercial,Earth Observation,Long March,1 44537U 19060D   23295.17440005  .00035562  00000+0  89394-3 0  9997,2 44537  97.4818  51.1460 0009540 186.0432 174.0700 15.39835295227270,15.39835295,0.000954,LEO
44538,ZHUHAI-1 03D,2019,93.51,55.0,+,97.48,Active,1,LEO,PRC,China,Commercial,Earth Observation,Long March,1 44538U 19060E   23295.15833575  .00034896  00000+0  87238-3 0  9998,2 44538  97.4769  50.6279 0007241 183.7695 176.3498 15.40027298227276,15.40027298,0.0007241,LEO
44539,ZHUHAI-1 03E,2019,93.47,55.0,+,97.49,Active,1,LEO,PRC,China,Commercial,Earth Observation,Long March,1 44539U 19060F   23295.11874952  .00039809  00000+0  97119-3 0  9997,2 44539  97.4936  52.9232 0010226 173.3006 186.8379 15.40715852227279,15.40715852,0.0010226,LEO
44542,BEIDOU-3 M24,2019,773.23,800.0,+,54.48,Active,1,MEO,PRC,China,Government/Military,Navigation (Global or Regional Positioning),Long March,1 44542U 19061A   23294.50456754  .00000004  00000+0  00000+0 0  9994,2 44542  54.4770 215.4651 0008603 352.4926   7.5215  1.86231468 27738,1.86231468,0.0008603,MEO
44543,BEIDOU-3 M23,2019,773.23,800.0,+,54.48,Active,1,MEO,PRC,China,Government/Military,Navigation (Global or Regional Positioning),Long March,1 44543U 19061B   23294.38630389  .00000006  00000+0  00000+0 0  9991,2 44543  54.4753 215.4385 0005676 341.6254 211.0464  1.86231712 27735,1.86231712,0.0005676,MEO
44547,YUNHAI 1-02,2019,100.39,-1.0,+,98.46,Active,0,LEO,PRC,China,Unknown,Unknown,Unknown,1 44547U 19063A   23295.09164330  .00000428  00000+0  16742-3 0  9996,2 44547  98.4631 315.0709 0007698 178.8685 181.2519 14.34408190213080,14.3440819,0.0007698,LEO
